OBJECT_NAME,OBJECT_ID,EPOCH,MEAN_MOTION,ECCENTRICITY,INCLINATION,RA_OF_ASC_NODE,ARG_OF_PERICENTER,MEAN_ANOMALY,EPHEMERIS_TYPE,CLASSIFICATION_TYPE,NORAD_CAT_ID,ELEMENT_SET_NO,REV_AT_EPOCH,BSTAR,MEAN_MOTION_DOT,MEAN_MOTION_DDOT
STARLINK-32679,2025-003W,2026-06-07T05:57:02.289024,15.27615149,.0000532,42.9995,143.5573,232.4663,127.6140,0,U,62507,999,8036,.59326E-3,.16116E-3,0
STARLINK-32749,2025-003X,2026-06-06T16:20:53.850912,15.27629714,.00012565,43.0018,146.2205,281.0027,79.0683,0,U,62508,999,8016,.11429452E-2,.31371E-3,0
STARLINK-32744,2025-003Y,2026-06-07T05:45:57.799584,15.27600896,.000402,43.0005,143.5419,283.5757,76.4647,0,U,62509,999,8024,.92278E-3,.25238E-3,0
STARLINK-32701,2025-003Z,2026-06-06T16:41:14.764128,15.27609245,.00022287,43.0033,146.3287,275.9516,84.1082,0,U,62510,999,8016,.77030277E-3,.21015E-3,0
STARLINK-11452 [DTC],2025-004A,2026-06-07T08:00:04.000032,15.70870733,.0001626,43.0000,250.3622,249.9470,248.2385,0,U,62511,999,595,-.70803E-3,-.90436E-3,0
STARLINK-11443 [DTC],2025-004B,2026-06-06T13:52:04.365120,15.70988898,.0003523,42.9955,255.3669,241.6302,118.4211,0,U,62512,999,8118,.14675E-2,.193539E-2,0
STARLINK-11440 [DTC],2025-004C,2026-06-06T15:00:41.878944,15.70885344,.0001567,42.9980,254.8495,273.1493,86.9196,0,U,62513,999,8119,.16658E-2,.219459E-2,0
STARLINK-11514 [DTC],2025-004D,2026-06-06T23:40:47.213184,15.70917959,.0003429,42.9988,252.3874,273.7707,86.2769,0,U,62514,999,8125,.16053E-2,.211581E-2,0
STARLINK-11508 [DTC],2025-004E,2026-06-07T04:06:31.362048,15.70870648,.0000496,42.9965,251.1869,287.6952,72.3861,0,U,62515,999,8128,.139E-2,.182102E-2,0
STARLINK-11510 [DTC],2025-004F,2026-06-07T09:27:04.959360,15.70933365,.000401,42.9982,250.2945,305.2269,54.8223,0,U,62516,999,8131,.12915E-2,.169401E-2,0
STARLINK-11512 [DTC],2025-004G,2026-06-07T06:46:41.666016,15.70841563,.0001923,43.0006,250.2890,264.0096,96.0552,0,U,62517,999,8130,.10533E-2,.136961E-2,0
STARLINK-11450 [DTC],2025-004H,2026-06-07T00:00:04.000320,15.70837064,.0001762,43.0002,252.4411,273.5871,107.2838,0,U,62518,999,584,-.3112E-3,-.40184E-3,0
STARLINK-11507 [DTC],2025-004J,2026-06-07T10:43:20.679168,15.70839412,.0002323,43.0013,249.8201,259.7164,100.3442,0,U,62519,999,8132,.12274E-2,.160121E-2,0
STARLINK-11482 [DTC],2025-004K,2026-06-06T17:10:18.194304,15.71021362,.0001028,42.9983,253.7782,268.2863,91.7887,0,U,62520,999,8121,.14897E-2,.196794E-2,0
STARLINK-11528 [DTC],2025-004L,2026-06-06T22:53:47.550912,15.70893669,.0001718,42.9994,253.0130,309.5635,50.5081,0,U,62521,999,8124,.21041E-2,.279446E-2,0
STARLINK-11516 [DTC],2025-004M,2026-06-06T23:39:27.166176,15.71087834,.0001663,43.0014,252.3749,272.7463,87.3215,0,U,62522,999,8125,.10671E-2,.140264E-2,0
STARLINK-11527 [DTC],2025-004N,2026-06-07T11:36:41.007744,15.70813609,.000307,42.9991,249.2240,308.9944,51.0650,0,U,62523,999,8133,.18522E-2,.244072E-2,0
STARLINK-32748,2025-004P,2026-06-06T12:05:36.864096,15.27582164,.00017715,43.0041,78.1236,261.6641,98.4010,0,U,62524,999,8004,.86808996E-3,.23704E-3,0
STARLINK-32777,2025-004Q,2026-06-07T11:01:08.373216,15.27594621,.0002656,42.9884,73.2495,279.0541,81.0010,0,U,62525,999,8018,.79416E-3,.21667E-3,0
STARLINK-32741,2025-004R,2026-06-06T11:12:50.495040,15.27597085,.00022452,42.9974,75.2413,281.4267,78.6332,0,U,62526,999,8007,.71105949E-3,.19367E-3,0
STARLINK-32754,2025-004S,2026-06-07T01:01:03.271008,15.27574623,.0001414,43.0004,75.2803,264.9014,95.1677,0,U,62527,999,7917,.48964E-4,.1085E-4,0
STARLINK-32786,2025-004T,2026-06-07T11:12:01.840608,15.27617785,.0002357,42.9987,72.4495,270.6873,89.3709,0,U,62528,999,7924,.62909E-3,.1711E-3,0
STARLINK-32789,2025-004U,2026-06-07T01:10:17.983200,15.27589705,.0001434,43.0019,75.3270,266.7905,93.2782,0,U,62529,999,8012,.33048E-3,.8846E-4,0
STARLINK-32791,2025-004V,2026-06-07T11:49:01.543008,15.27623827,.0004361,43.0106,72.6370,273.1251,86.9102,0,U,62530,999,8019,.83211E-3,.22741E-3,0
STARLINK-32785,2025-004W,2026-06-07T10:46:20.900928,15.27590626,.0000772,43.0008,73.1794,204.8097,155.2717,0,U,62531,999,8018,.66223E-3,.18011E-3,0
STARLINK-11538 [DTC],2025-006A,2026-06-06T18:02:48.528384,15.70974551,.00032469,43.0002,322.6960,254.4858,105.5651,0,U,62554,999,8061,.23293188E-2,.311694E-2,0
STARLINK-11534 [DTC],2025-006B,2026-06-06T18:10:27.232032,15.70961177,.00035633,42.9993,322.7391,255.4351,104.6121,0,U,62555,999,8061,.21962617E-2,.293044E-2,0
STARLINK-11515 [DTC],2025-006C,2026-06-07T07:24:06.501312,15.70857590,.0003474,43.0006,320.0162,297.5730,62.4785,0,U,62556,999,8069,.13337E-2,.174478E-2,0
STARLINK-11478 [DTC],2025-006D,2026-06-07T03:50:24.285120,15.70904761,.0002885,43.0022,320.6105,267.9257,92.1281,0,U,62557,999,8067,.15293E-2,.201161E-2,0
STARLINK-11358 [DTC],2025-006E,2026-06-07T11:20:33.713952,15.70862274,.0002266,42.9996,318.6508,269.8288,90.2320,0,U,62558,999,8072,.15462E-2,.20307E-2,0
