STARLINK-32679          
1 62507U 25003W   26158.24794316  .00016116  00000+0  59326-3 0  9990
2 62507  42.9995 143.5573 0000532 232.4663 127.6140 15.27615149 80363
STARLINK-32749          
1 62508U 25003X   26157.68117883  .00031371  00000+0  11429-2 0  9997
2 62508  43.0018 146.2205 0001256 281.0027  79.0683 15.27629714 80165
STARLINK-32744          
1 62509U 25003Y   26158.24025231  .00025238  00000+0  92278-3 0  9993
2 62509  43.0005 143.5419 0004020 283.5757  76.4647 15.27600896 80248
STARLINK-32701          
1 62510U 25003Z   26157.69530977  .00021015  00000+0  77030-3 0  9999
2 62510  43.0033 146.3287 0002228 275.9516  84.1082 15.27609245 80168
STARLINK-11452 [DTC]    
1 62511U 25004A   26158.33337963 -.00090436  00000+0 -70803-3 0  9999
2 62511  43.0000 250.3622 0001626 249.9470 248.2385 15.70870733  5956
STARLINK-11443 [DTC]    
1 62512U 25004B   26157.57782830  .00193539  00000+0  14675-2 0  9992
2 62512  42.9955 255.3669 0003523 241.6302 118.4211 15.70988898 81188
STARLINK-11440 [DTC]    
1 62513U 25004C   26157.62548471  .00219459  00000+0  16658-2 0  9993
2 62513  42.9980 254.8495 0001567 273.1493  86.9196 15.70885344 81199
STARLINK-11514 [DTC]    
1 62514U 25004D   26157.98665756  .00211581  00000+0  16053-2 0  9996
2 62514  42.9988 252.3874 0003429 273.7707  86.2769 15.70917959 81259
STARLINK-11508 [DTC]    
1 62515U 25004E   26158.17119632  .00182102  00000+0  13900-2 0  9990
2 62515  42.9965 251.1869 0000496 287.6952  72.3861 15.70870648 81288
STARLINK-11510 [DTC]    
1 62516U 25004F   26158.39380740  .00169401  00000+0  12915-2 0  9997
2 62516  42.9982 250.2945 0004010 305.2269  54.8223 15.70933365 81314
STARLINK-11512 [DTC]    
1 62517U 25004G   26158.28242669  .00136961  00000+0  10533-2 0  9992
2 62517  43.0006 250.2890 0001923 264.0096  96.0552 15.70841563 81303
STARLINK-11450 [DTC]    
1 62518U 25004H   26158.00004630 -.00040184  00000+0 -31120-3 0  9996
2 62518  43.0002 252.4411 0001762 273.5871 107.2838 15.70837064  5848
STARLINK-11507 [DTC]    
1 62519U 25004J   26158.44676712  .00160121  00000+0  12274-2 0  9991
2 62519  43.0013 249.8201 0002323 259.7164 100.3442 15.70839412 81324
STARLINK-11482 [DTC]    
1 62520U 25004K   26157.71548836  .00196794  00000+0  14897-2 0  9995
2 62520  42.9983 253.7782 0001028 268.2863  91.7887 15.71021362 81212
STARLINK-11528 [DTC]    
1 62521U 25004L   26157.95402258  .00279446  00000+0  21041-2 0  9994
2 62521  42.9994 253.0130 0001718 309.5635  50.5081 15.70893669 81245
STARLINK-11516 [DTC]    
1 62522U 25004M   26157.98573109  .00140264  00000+0  10671-2 0  9994
2 62522  43.0014 252.3749 0001663 272.7463  87.3215 15.71087834 81256
STARLINK-11527 [DTC]    
1 62523U 25004N   26158.48380796  .00244072  00000+0  18522-2 0  9994
2 62523  42.9991 249.2240 0003070 308.9944  51.0650 15.70813609 81336
STARLINK-32748          
1 62524U 25004P   26157.50389889  .00023704  00000+0  86809-3 0  9990
2 62524  43.0041  78.1236 0001771 261.6641  98.4010 15.27582164 80047
STARLINK-32777          
1 62525U 25004Q   26158.45912469  .00021667  00000+0  79416-3 0  9994
2 62525  42.9884  73.2495 0002656 279.0541  81.0010 15.27594621 80183
STARLINK-32741          
1 62526U 25004R   26157.46725110  .00019367  00000+0  71106-3 0  9992
2 62526  42.9974  75.2413 0002245 281.4267  78.6332 15.27597085 80076
STARLINK-32754          
1 62527U 25004S   26158.04239897  .00001085  00000+0  48964-4 0  9995
2 62527  43.0004  75.2803 0001414 264.9014  95.1677 15.27574623 79177
STARLINK-32786          
1 62528U 25004T   26158.46668797  .00017110  00000+0  62909-3 0  9997
2 62528  42.9987  72.4495 0002357 270.6873  89.3709 15.27617785 79242
STARLINK-32789          
1 62529U 25004U   26158.04881925  .00008846  00000+0  33048-3 0  9990
2 62529  43.0019  75.3270 0001434 266.7905  93.2782 15.27589705 80125
STARLINK-32791          
1 62530U 25004V   26158.49237897  .00022741  00000+0  83211-3 0  9991
2 62530  43.0106  72.6370 0004361 273.1251  86.9102 15.27623827 80199
STARLINK-32785          
1 62531U 25004W   26158.44885302  .00018011  00000+0  66223-3 0  9996
2 62531  43.0008  73.1794 0000772 204.8097 155.2717 15.27590626 80189
STARLINK-11538 [DTC]    
1 62554U 25006A   26157.75195056  .00311694  00000+0  23293-2 0  9998
2 62554  43.0002 322.6960 0003246 254.4858 105.5651 15.70974551 80614
STARLINK-11534 [DTC]    
1 62555U 25006B   26157.75725963  .00293044  00000+0  21963-2 0  9995
2 62555  42.9993 322.7391 0003563 255.4351 104.6121 15.70961177 80614
STARLINK-11515 [DTC]    
1 62556U 25006C   26158.30840858  .00174478  00000+0  13337-2 0  9994
2 62556  43.0006 320.0162 0003474 297.5730  62.4785 15.70857590 80696
STARLINK-11478 [DTC]    
1 62557U 25006D   26158.16000330  .00201161  00000+0  15293-2 0  9995
2 62557  43.0022 320.6105 0002885 267.9257  92.1281 15.70904761 80670
STARLINK-11358 [DTC]    
1 62558U 25006E   26158.47261243  .00203070  00000+0  15462-2 0  9991
2 62558  42.9996 318.6508 0002266 269.8288  90.2320 15.70862274 80722
